VSP RF A1               
1 59135U 24043AP  26066.03073316  .00000577  00000+0  25199-4 0  9997
2 59135  97.5247 201.5379 0009431 234.6315 125.4042 15.26179596111403
STARLINK-32687          
1 63565U 25075T   26068.54251514  .00022577  00000+0  82711-3 0  9997
2 63565  42.9983 271.5462 0002249 304.0179  56.0458 15.27591814 51917
